STARLINK-31156          
1 58743U 24005R   26199.71531485  .00000340  00000+0  21876-4 0  9993
2 58743  43.0031 199.6933 0000801 272.8251  87.2509 15.27575980140539
STARLINK-31167          
1 58744U 24005S   26199.59372306 -.00001001  00000+0 -26876-4 0  9997
2 58744  43.0039  55.0300 0001107 244.2393 115.8344 15.27575195142222
STARLINK-31176          
1 58745U 24005T   26199.40252191 -.00000648  00000+0 -14025-4 0  9996
2 58745  43.0030 201.6402 0001513 274.4197  85.6482 15.27573322140476
STARLINK-31181          
1 58746U 24005U   26199.60368132 -.00000372  00000+0 -40034-5 0  9996
2 58746  43.0014  48.1872 0001282 263.1036  96.9670 15.27579968142304
STARLINK-31183          
1 58747U 24005V   26198.49481610  .00000836  00000+0  39923-4 0  9997
2 58747  43.0018 206.8660 0002090 280.0573  80.0043 15.27578804140392
STARLINK-31165          
1 58748U 24005W   26199.40643623  .00044874  00000+0  16417-2 0  9995
2 58748  43.0023 201.6667 0000541 150.4346 209.6536 15.27351857140434
STARLINK-31160          
1 58749U 24005X   26199.09356478  .00000361  00000+0  22656-4 0  9997
2 58749  43.0015 203.5479 0001467 273.1837  86.8847 15.27576775140386
STARLINK-31179          
1 58750U 24005Y   26199.41280267 -.00000280  00000+0 -63452-6 0  9990
2 58750  43.0025 201.7129 0001622 266.6145  93.4521 15.27572262140439
EINSTEIN PROBE          
1 58753U 24007A   26199.79795169  .00001492  00000+0  99686-4 0  9998
2 58753  29.0001   7.8499 0009457 184.8703 175.1804 15.02018818138322
NANOFF B                
1 58755U 23185S   26199.81524218  .00001609  00000+0  96132-4 0  9997
2 58755  97.5249 266.8441 0012149 188.6977 171.4045 15.12463575138656
YUNYAO-1 18             
1 58758U 24009A   26199.84533603  .00007850  00000+0  33133-3 0  9992
2 58758  50.0172 358.1572 0004316  49.3271 310.8059 15.24117683139671
YUNYAO-1 19             
1 58759U 24009B   26199.86715006  .00005027  00000+0  25544-3 0  9995
2 58759  49.9831  12.5236 0004571  57.2206 302.9187 15.18460333139487
YUNYAO-1 20             
1 58760U 24009C   26199.86303231  .00004963  00000+0  25102-3 0  9998
2 58760  49.9774  10.5600 0003347  65.5678 294.5623 15.18650089139506
STARLINK-31127          
1 58765U 24011A   26199.80155522  .00000215  00000+0  19397-4 0  9994
2 58765  53.1599 124.7082 0001405  91.7092 268.4070 15.30191204140342
STARLINK-31114          
1 58766U 24011B   26199.81053051 -.00001840  00000+0 -50003-4 0  9996
2 58766  53.1585 122.6551 0001472  88.4658 271.6512 15.30201432140376
STARLINK-31140          
1 58767U 24011C   26199.75877021  .00000868  00000+0  36851-4 0  9993
2 58767  53.1605 123.7355 0001440  91.9641 268.1527 15.34388360140355
STARLINK-31146          
1 58769U 24011E   26199.11372388  .00002450  00000+0  83612-4 0  9997
2 58769  53.1595 126.8206 0001370  88.4990 271.6170 15.34400816140257
STARLINK-31143          
1 58770U 24011F   26199.18516453 -.00000539  00000+0 -47995-5 0  9992
2 58770  53.1613 126.5568 0001525  84.8280 275.2897 15.34399033140267
STARLINK-31135          
1 58771U 24011G   26199.21213510 -.00009006  00000+0 -29211-3 0  9992
2 58771  53.1595 125.3190 0001026  81.4247 278.6870 15.30223491140287
STARLINK-31136          
1 58772U 24011H   26199.81759380  .00000235  00000+0  18089-4 0  9994
2 58772  53.1600 123.3876 0001270  96.0651 264.0496 15.34387882140356
STARLINK-31073          
1 58773U 24011J   26199.80472397  .00005724  00000+0  20533-3 0  9998
2 58773  53.1593 124.7271 0001623  83.4861 276.6324 15.30183738140345
STARLINK-31122          
1 58774U 24011K   26199.81107931 -.00002474  00000+0 -71523-4 0  9996
2 58774  53.1588 124.7610 0001281  83.0843 277.0303 15.30165184140340
STARLINK-31123          
1 58775U 24011L   26199.78814681 -.00000538  00000+0 -47975-5 0  9994
2 58775  53.1615 123.2091 0001565  83.9857 276.1324 15.34378798 13611
STARLINK-31117          
1 58776U 24011M   26199.81844350 -.00001048  00000+0 -23257-4 0  9998
2 58776  53.1603 124.8073 0001219  85.8291 274.2849 15.30200574140349
STARLINK-31132          
1 58777U 24011N   26199.79108060  .00001815  00000+0  70243-4 0  9994
2 58777  53.1608  33.7104 0001438  85.5269 274.5897 15.31705891141646
STARLINK-31120          
1 58778U 24011P   26199.76297881  .00000580  00000+0  28301-4 0  9998
2 58778  53.1607 123.7527 0001487  87.7784 272.3388 15.34387382140357
STARLINK-31142          
1 58779U 24011Q   26199.81634091  .00000062  00000+0  14225-4 0  9998
2 58779  53.1599 124.7913 0001200  90.5308 269.5830 15.30188263140347
STARLINK-31099          
1 58781U 24011S   26199.81316146  .00000073  00000+0  14599-4 0  9995
2 58781  53.1601 124.7712 0001413  89.0354 271.0809 15.30192764140346
STARLINK-31047          
1 58783U 24011U   26199.73024250  .00000063  00000+0  13010-4 0  9996
2 58783  53.1604 107.4726 0001359  93.7442 266.3716 15.34380235140578
STARLINK-31039          
1 58784U 24011V   26199.02304046 -.00004828  00000+0 -15099-3 0  9996
2 58784  53.1584 128.3707 0001055  72.7114 287.4003 15.30202505140227
