OBJECT_NAME,OBJECT_ID,EPOCH,MEAN_MOTION,ECCENTRICITY,INCLINATION,RA_OF_ASC_NODE,ARG_OF_PERICENTER,MEAN_ANOMALY,EPHEMERIS_TYPE,CLASSIFICATION_TYPE,NORAD_CAT_ID,ELEMENT_SET_NO,REV_AT_EPOCH,BSTAR,MEAN_MOTION_DOT,MEAN_MOTION_DDOT
STARLINK-31156,2024-005R,2026-07-18T17:10:03.203040,15.27575980,.0000801,43.0031,199.6933,272.8251,87.2509,0,U,58743,999,14053,.21876E-4,.34E-5,0
STARLINK-31167,2024-005S,2026-07-18T14:14:57.672384,15.27575195,.0001107,43.0039,55.0300,244.2393,115.8344,0,U,58744,999,14222,-.26876E-4,-.1001E-4,0
STARLINK-31176,2024-005T,2026-07-18T09:39:37.893024,15.27573322,.00015134,43.0030,201.6402,274.4197,85.6482,0,U,58745,999,14047,-.14025013E-4,-.648E-5,0
STARLINK-31181,2024-005U,2026-07-18T14:29:18.066048,15.27579968,.0001282,43.0014,48.1872,263.1036,96.9670,0,U,58746,999,14230,-.40034E-5,-.372E-5,0
STARLINK-31183,2024-005V,2026-07-17T11:52:32.111040,15.27578804,.000209,43.0018,206.8660,280.0573,80.0043,0,U,58747,999,14039,.39923E-4,.836E-5,0
STARLINK-31165,2024-005W,2026-07-18T09:45:16.090272,15.27351857,.00005414,43.0023,201.6667,150.4346,209.6536,0,U,58748,999,14043,.16416844E-2,.44874E-3,0
STARLINK-31160,2024-005X,2026-07-18T02:14:43.996992,15.27576775,.00014673,43.0015,203.5479,273.1837,86.8847,0,U,58749,999,14038,.22656035E-4,.361E-5,0
STARLINK-31179,2024-005Y,2026-07-18T09:54:26.150688,15.27572262,.00016229,43.0025,201.7129,266.6145,93.4521,0,U,58750,999,14043,-.634521E-6,-.28E-5,0
EINSTEIN PROBE,2024-007A,2026-07-18T19:09:03.026016,15.02018818,.0009457,29.0001,7.8499,184.8703,175.1804,0,U,58753,999,13832,.99686E-4,.1492E-4,0
NANOFF B,2023-185S,2026-07-18T19:33:56.924352,15.12463575,.0012149,97.5249,266.8441,188.6977,171.4045,0,U,58755,999,13865,.96132E-4,.1609E-4,0
YUNYAO-1 18,2024-009A,2026-07-18T20:17:17.032992,15.24117683,.0004316,50.0172,358.1572,49.3271,310.8059,0,U,58758,999,13967,.33133E-3,.785E-4,0
YUNYAO-1 19,2024-009B,2026-07-18T20:48:41.765184,15.18460333,.0004571,49.9831,12.5236,57.2206,302.9187,0,U,58759,999,13948,.25544E-3,.5027E-4,0
YUNYAO-1 20,2024-009C,2026-07-18T20:42:45.991584,15.18650089,.0003347,49.9774,10.5600,65.5678,294.5623,0,U,58760,999,13950,.25102E-3,.4963E-4,0
STARLINK-31127,2024-011A,2026-07-18T19:14:14.371008,15.30191204,.0001405,53.1599,124.7082,91.7092,268.4070,0,U,58765,999,14034,.19397E-4,.215E-5,0
STARLINK-31114,2024-011B,2026-07-18T19:27:09.836064,15.30201432,.0001472,53.1585,122.6551,88.4658,271.6512,0,U,58766,999,14037,-.50003E-4,-.184E-4,0
STARLINK-31140,2024-011C,2026-07-18T18:12:37.746144,15.34388360,.000144,53.1605,123.7355,91.9641,268.1527,0,U,58767,999,14035,.36851E-4,.868E-5,0
STARLINK-31146,2024-011E,2026-07-18T02:43:45.743232,15.34400816,.00013708,53.1595,126.8206,88.4990,271.6170,0,U,58769,999,14025,.83612044E-4,.245E-4,0
STARLINK-31143,2024-011F,2026-07-18T04:26:38.215392,15.34399033,.00015252,53.1613,126.5568,84.8280,275.2897,0,U,58770,999,14026,-.4799457E-5,-.539E-5,0
STARLINK-31135,2024-011G,2026-07-18T05:05:28.472640,15.30223491,.00010263,53.1595,125.3190,81.4247,278.6870,0,U,58771,999,14028,-.2921104E-3,-.9006E-4,0
STARLINK-31136,2024-011H,2026-07-18T19:37:20.104320,15.34387882,.000127,53.1600,123.3876,96.0651,264.0496,0,U,58772,999,14035,.18089E-4,.235E-5,0
STARLINK-31073,2024-011J,2026-07-18T19:18:48.151008,15.30183738,.0001623,53.1593,124.7271,83.4861,276.6324,0,U,58773,999,14034,.20533E-3,.5724E-4,0
STARLINK-31122,2024-011K,2026-07-18T19:27:57.252384,15.30165184,.0001281,53.1588,124.7610,83.0843,277.0303,0,U,58774,999,14034,-.71523E-4,-.2474E-4,0
STARLINK-31123,2024-011L,2026-07-18T18:54:55.884384,15.34378798,.0001565,53.1615,123.2091,83.9857,276.1324,0,U,58775,999,1361,-.47975E-5,-.538E-5,0
STARLINK-31117,2024-011M,2026-07-18T19:38:33.518400,15.30200574,.0001219,53.1603,124.8073,85.8291,274.2849,0,U,58776,999,14034,-.23257E-4,-.1048E-4,0
STARLINK-31132,2024-011N,2026-07-18T18:59:09.363840,15.31705891,.0001438,53.1608,33.7104,85.5269,274.5897,0,U,58777,999,14164,.70243E-4,.1815E-4,0
STARLINK-31120,2024-011P,2026-07-18T18:18:41.369184,15.34387382,.0001487,53.1607,123.7527,87.7784,272.3388,0,U,58778,999,14035,.28301E-4,.58E-5,0
STARLINK-31142,2024-011Q,2026-07-18T19:35:31.854624,15.30188263,.00012,53.1599,124.7913,90.5308,269.5830,0,U,58779,999,14034,.14225E-4,.62E-6,0
STARLINK-31099,2024-011S,2026-07-18T19:30:57.150144,15.30192764,.0001413,53.1601,124.7712,89.0354,271.0809,0,U,58781,999,14034,.14599E-4,.73E-6,0
STARLINK-31047,2024-011U,2026-07-18T17:31:32.952000,15.34380235,.0001359,53.1604,107.4726,93.7442,266.3716,0,U,58783,999,14057,.1301E-4,.63E-6,0
STARLINK-31039,2024-011V,2026-07-18T00:33:10.695744,15.30202505,.00010557,53.1584,128.3707,72.7114,287.4003,0,U,58784,999,14022,-.1509892E-3,-.4828E-4,0
